SPACEBEE-4              
1 43139U 18004AE  22198.47189796  .00055519  00000+0  10998-2 0  9999
2 43139  97.3835 283.1806 0004702 207.4378 152.6624 15.46871484251483
SPACEBEE-3              
1 43140U 18004AF  22198.52006110  .00131203  00000+0  16051-2 0  9996
2 43140  97.3870 287.5063 0004862 202.8282 157.2759 15.59944786251746
SPACEBEE-2              
1 43141U 18004AG  22198.51503216  .00202468  00000+0  18190-2 0  9993
2 43141  97.3877 289.2980 0005683 209.2712 150.8231 15.67607513251840
SPACEBEE-1              
1 43142U 18004AH  22198.52129193  .00521708  00000+0  21612-2 0  9997
2 43142  97.3834 291.5615 0008404 239.9388 120.1049 15.84486405251973
SPACEBEE-7              
1 43816U 18099BL  22198.46765026  .00004430  00000+0  38128-3 0  9992
2 43816  97.6240 265.9629 0014251 147.2243 212.9867 14.97796383197141
SPACEBEE-5              
1 43817U 18099BM  22198.45751946  .00009315  00000+0  72187-3 0  9998
2 43817  97.6366 269.0221 0008690 150.7571 209.4142 15.01600078197279
SPACEBEE-6              
1 43818U 18099BN  22198.46996522  .00006184  00000+0  51545-3 0  9997
2 43818  97.6281 266.8927 0014465 145.2826 214.9344 14.98885767197330
SPACEBEE-21             
1 46300U 20061AE  22198.15904324  .00018856  00000+0  88109-3 0  9998
2 46300  97.4492 269.8805 0002775 102.3901 257.7645 15.19839963103043
SPACEBEE-20             
1 46301U 20061AF  22198.15779937  .00018879  00000+0  88285-3 0  9999
2 46301  97.4516 269.9681 0002736 101.5492 258.6050 15.19811523103049
SPACEBEE-15             
1 46302U 20061AG  22198.42971619  .00020085  00000+0  90939-3 0  9992
2 46302  97.4496 270.4453 0002628 102.2396 257.9134 15.20913337103102
SPACEBEE-19             
1 46303U 20061AH  22198.17091358  .00018812  00000+0  86789-3 0  9991
2 46303  97.4498 270.0417 0002831 102.4214 257.7338 15.20279732103050
SPACEBEE-18             
1 46304U 20061AJ  22198.50926105  .00019785  00000+0  91416-3 0  9999
2 46304  97.4494 270.3415 0002732 102.2052 257.9490 15.20217406103103
SPACEBEE-10             
1 46305U 20061AK  22198.48265092  .00027516  00000+0  11756-2 0  9997
2 46305  97.4509 271.0362 0002706 106.3345 253.8189 15.22830651103140
SPACEBEE-17             
1 46306U 20061AL  22198.44546144  .00018641  00000+0  84827-3 0  9993
2 46306  97.4498 270.4453 0002746 102.6404 257.5138 15.20755265103141
SPACEBEE-11             
1 46307U 20061AM  22198.43283897  .00022760  00000+0  99656-3 0  9999
2 46307  97.4501 270.7825 0002689 104.1919 255.9615 15.22035157103120
SPACEBEE-16             
1 46308U 20061AN  22198.16939881  .00019934  00000+0  90485-3 0  9991
2 46308  97.4501 270.2162 0002673 102.3138 257.8397 15.20827922103064
SPACEBEE-12             
1 46309U 20061AP  22198.14414843  .00022712  00000+0  10055-2 0  9998
2 46309  97.4500 270.3950 0002721 103.6124 256.5415 15.21657140103075
SPACEBEE-13             
1 46310U 20061AQ  22198.17900069  .00020906  00000+0  93457-3 0  9994
2 46310  97.4498 270.3467 0002729 103.2985 256.8555 15.21342180103113
SPACEBEE-14             
1 46311U 20061AR  22198.45695962  .00020225  00000+0  90800-3 0  9992
2 46311  97.4501 270.5923 0002769 103.2388 256.9157 15.21202226103147
SPACEBEE-34             
1 46933U 20085E   22198.36624051  .00107541  00000+0  18261-2 0  9996
2 46933  97.4279 340.0646 0006529 320.0178  40.0610 15.51066055 92287
SPACEBEE-35             
1 46934U 20085F   22198.38707580  .00098163  00000+0  18181-2 0  9998
2 46934  97.4313 339.7716 0006095 318.1896  41.8891 15.48630858 92265
SPACEBEE-36             
1 46935U 20085G   22198.57588545  .00087541  00000+0  16713-2 0  9995
2 46935  97.4337 339.9401 0007175 322.9609  37.1176 15.47791647 92289
SPACEBEE-37             
1 46936U 20085H   22198.34168391  .00071571  00000+0  15254-2 0  9999
2 46936  97.4396 339.2540 0007671 325.8681  34.2076 15.44636686 92213
SPACEBEE-38             
1 46937U 20085J   22198.56391451  .00071345  00000+0  15332-2 0  9995
2 46937  97.4324 339.2678 0007972 328.7206  31.3573 15.44389393 92249
SPACEBEENZ-3            
1 46938U 20085K   22198.65719499  .00028294  00000+0  86614-3 0  9999
2 46938  97.4394 337.3916 0011942 338.3246  21.7574 15.33718867 92114
SPACEBEENZ-4            
1 46939U 20085L   22198.32341110  .00026453  00000+0  82498-3 0  9996
2 46939  97.4407 336.9260 0011038 342.4498  17.6363 15.33151120 92054
SPACEBEENZ-5            
1 46941U 20085N   22198.36269624  .00025459  00000+0  80242-3 0  9992
2 46941  97.4356 336.8800 0011171 341.5695  18.5142 15.32820177 92055
SPACEBEENZ-6            
1 46942U 20085P   22198.33192975  .00024199  00000+0  77125-3 0  9990
2 46942  97.4404 336.8062 0011718 340.9910  19.0900 15.32468437 92044
SPACEBEE-33             
1 46944U 20085R   22198.64973885  .00056895  00000+0  13777-2 0  9993
2 46944  97.4320 338.1550 0007729 343.6431  16.4756 15.40878767 92180
SPACEBEE-29             
1 46945U 20085S   22198.62853632  .00065076  00000+0  14672-2 0  9995
2 46945  97.4292 338.4937 0006811 344.7479  15.3622 15.42998444 92206
SPACEBEE-32             
1 46946U 20085T   22198.61399652  .00057710  00000+0  13749-2 0  9992
2 46946  97.4308 338.2079 0008730 344.3591  15.7397 15.41359713 92182
SPACEBEE-31             
1 46947U 20085U   22198.64614818  .00065835  00000+0  15393-2 0  9994
2 46947  97.4322 338.3170 0007687 347.0982  13.0116 15.41898119 92195
SPACEBEE-28             
1 46948U 20085V   22198.33960504  .00067589  00000+0  15005-2 0  9995
2 46948  97.4301 338.2685 0007317 345.0824  15.0213 15.43444827 92168
SPACEBEE-30             
1 46949U 20085W   22198.34627021  .00065294  00000+0  14989-2 0  9992
2 46949  97.4295 338.1007 0007740 344.8423  15.2592 15.42451101 92153
SPACEBEE-27             
1 46950U 20085X   22198.64388502  .00083750  00000+0  17185-2 0  9993
2 46950  97.4284 338.8972 0006622 344.7347  15.3782 15.45709851 92235
SPACEBEE-25             
1 46951U 20085Y   22198.64950477  .00093289  00000+0  18069-2 0  9990
2 46951  97.4266 339.2259 0005846 336.8625  23.2661 15.47360436 92257
SPACEBEE-24             
1 46952U 20085Z   22198.63148347  .00069281  00000+0  15136-2 0  9992
2 46952  97.4268 338.6238 0007192 351.5179   8.6065 15.43915413 92212
SPACEBEE-22             
1 46953U 20085AA  22198.35353297  .00094778  00000+0  17944-2 0  9992
2 46953  97.4278 338.9637 0007030 342.5947  17.5067 15.48005406 92212
SPACEBEE-26             
1 46956U 20085AD  22198.61453800  .00072634  00000+0  15642-2 0  9995
2 46956  97.4295 338.6562 0009671 344.4442  15.6536 15.44305272 92133
SPACEBEENZ-2            
1 46957U 20085AE  22198.34328006  .00026758  00000+0  80658-3 0  9991
2 46957  97.4409 337.1983 0011005 340.6450  19.4373 15.34229973 92035
SPACEBEE-39             
1 46958U 20085AF  22198.60832232  .00066402  00000+0  14875-2 0  9999
2 46958  97.4297 339.0233 0007976 328.3371  31.7432 15.43176323 91534
SPACEBEENZ-1            
1 46959U 20085AG  22198.33850763  .00031491  00000+0  92899-3 0  9992
2 46959  97.4390 337.3620 0012099 341.5772  18.5041 15.34866347 91568
SPACEBEE-23             
1 46960U 20085AH  22198.35049484  .00078002  00000+0  15324-2 0  9992
2 46960  97.4287 338.8172 0006646 340.9670  19.1330 15.47004510 91337
SPACEBEE-52             
1 47425U 21006N   22198.43621261  .00031405  00000+0  11843-2 0  9999
2 47425  97.4426 260.3068 0012212 156.9312 203.2477 15.26926548 82986
SPACEBEE-46             
1 47426U 21006P   22198.11761306  .00025717  00000+0  10390-2 0  9995
2 47426  97.4414 259.4692 0012476 159.7785 200.3949 15.24665897 82902
SPACEBEE-47             
1 47427U 21006Q   22198.42134498  .00022774  00000+0  92999-3 0  9992
2 47427  97.4420 259.6696 0012599 159.6824 200.4917 15.24330087 81988
SPACEBEE-59             
1 47428U 21006R   22198.13239615  .00022844  00000+0  94290-3 0  9992
2 47428  97.4419 259.2994 0012412 162.0440 198.1239 15.23970705 82897
SPACEBEE-62             
1 47429U 21006S   22198.40589489  .00008634  00000+0  42478-3 0  9992
2 47429  97.4374 257.9581 0013778 162.3600 197.8116 15.18163269 81883
SPACEBEE-61             
1 47431U 21006U   22198.45134884  .00020249  00000+0  93865-3 0  9997
2 47431  97.4454 257.6336 0006197 163.0618 197.0825 15.20087291 82797
SPACEBEE-49             
1 47432U 21006V   22198.42384884  .00018683  00000+0  87143-3 0  9993
2 47432  97.4461 257.5482 0005929 162.4591 197.6850 15.19892728 82782
SPACEBEE-60             
1 47433U 21006W   22198.41752901  .00017330  00000+0  80435-3 0  9997
2 47433  97.4464 257.5735 0005743 162.1924 197.9513 15.20079087 82784
SPACEBEE-53             
1 47434U 21006X   22198.12501973  .00024682  00000+0  10859-2 0  9997
2 47434  97.4473 257.7111 0005521 162.4941 197.6486 15.21844787 82763
SPACEBEE-63             
1 47442U 21006AF  22198.43041247  .00007744  00000+0  41465-3 0  9991
2 47442  97.4414 256.2550 0006391 170.1870 189.9488 15.15279786 81759
SPACEBEE-50             
1 47443U 21006AG  22198.11931610  .00019444  00000+0  90437-3 0  9992
2 47443  97.4454 257.3045 0006314 164.1779 195.9654 15.19978438 81780
SPACEBEE-51             
1 47444U 21006AH  22198.42299601  .00023997  00000+0  10367-2 0  9995
2 47444  97.4386 257.5979 0006155 161.8060 198.3398 15.22467910 81866
SPACEBEE-48             
1 47447U 21006AL  22198.42796928  .00026885  00000+0  10892-2 0  9994
2 47447  97.4371 258.7108 0010211 159.2792 200.8862 15.24587586 81949
SPACEBEE-40             
1 47449U 21006AN  22198.15513204  .00024098  00000+0  10147-2 0  9997
2 47449  97.4371 258.1607 0010359 161.0613 199.1011 15.23307190 81884
SPACEBEE-41             
1 47451U 21006AQ  22198.43162750  .00022911  00000+0  96714-3 0  9994
2 47451  97.4378 258.4393 0010310 160.7540 199.4089 15.23233149 81926
SPACEBEE-42             
1 47455U 21006AU  22198.39791394  .00023199  00000+0  98539-3 0  9991
2 47455  97.4378 258.3567 0010140 161.1520 199.0093 15.23021532 81917
SPACEBEE-55             
1 47459U 21006AY  22198.42887874  .00008338  00000+0  42700-3 0  9995
2 47459  97.4337 256.7495 0011676 172.3383 187.8031 15.16792851 81822
